NORAD_CAT_ID,OBJECT_NAME,OBJECT_TYPE,EPOCH,MEAN_MOTION,ECCENTRICITY,INCLINATION,RA_OF_ASC_NODE,ARG_OF_PERICENTER,MEAN_ANOMALY,BSTAR,MEAN_MOTION_DOT,MEAN_MOTION_DDOT,TLE_LINE0,TLE_LINE1,TLE_LINE2,SEMIMAJOR_AXIS,PERIOD,APOGEE,PERIGEE,DECAYED
51113.0,STARLINK-3372,PAYLOAD,2023-02-05 18:02:58,15.0883465,0.0001203,53.2183,312.6278,86.6118,273.5012,2.3883e-05,9.2e-07,0.0,0 STARLINK-3372,1 51113U 22005K   23036.75206730  .00000092  00000-0  23883-4 0  9993,2 51113  53.2183 312.6278 0001203  86.6118 273.5012 15.08834650 59701,6917.897,95.438,540.594,538.93,0.0
51113.0,STARLINK-3372,PAYLOAD,2023-02-06 03:35:17,15.08840985,0.0001403,53.2178,310.8435,83.3013,276.8138,0.00019953,2.889e-05,0.0,0 STARLINK-3372,1 51113U 22005K   23037.14950771  .00002889  00000-0  19953-3 0  9996,2 51113  53.2178 310.8435 0001403  83.3013 276.8138 15.08840985 58656,6917.877,95.437,540.713,538.772,0.0
51113.0,STARLINK-3372,PAYLOAD,2023-02-07 00:15:17,15.08851089,0.0001236,53.2183,306.977,94.1828,265.9305,0.00062779,9.72e-05,0.0,0 STARLINK-3372,1 51113U 22005K   23038.01062411  .00009720  00000-0  62779-3 0  9993,2 51113  53.2183 306.9770 0001236  94.1828 265.9305 15.08851089 59897,6917.846,95.437,540.567,538.856,0.0
51113.0,STARLINK-3372,PAYLOAD,2023-02-07 12:58:22,15.08852328,0.0001291,53.2187,304.5998,111.2462,248.8668,0.00035346,5.344e-05,0.0,0 STARLINK-3372,1 51113U 22005K   23038.54054182  .00005344  00000-0  35346-3 0  9995,2 51113  53.2187 304.5998 0001291 111.2462 248.8668 15.08852328 58868,6917.843,95.437,540.601,538.815,0.0
51113.0,STARLINK-3372,PAYLOAD,2023-02-07 17:44:32,15.08834549,9.64e-05,53.218,303.7072,48.2338,311.8737,-0.00011831,-2.17e-05,0.0,0 STARLINK-3372,1 51113U 22005K   23038.73926671 -.00002170  00000-0 -11831-3 0  9996,2 51113  53.2180 303.7072 0000964  48.2338 311.8737 15.08834549 60004,6917.897,95.438,540.429,539.095,0.0
51113.0,STARLINK-3372,PAYLOAD,2023-02-07 20:55:18,15.08842042,0.0001357,53.2172,303.1125,87.3493,272.7655,5.4563e-05,5.81e-06,0.0,0 STARLINK-3372,1 51113U 22005K   23038.87174470  .00000581  00000-0  54563-4 0  9995,2 51113  53.2172 303.1125 0001357  87.3493 272.7655 15.08842042 58919,6917.874,95.437,540.678,538.8,0.0
51113.0,STARLINK-3372,PAYLOAD,2023-02-08 03:16:51,15.08853919,0.0001446,53.217,301.9244,71.538,288.577,0.00092639,0.00014492,0.0,0 STARLINK-3372,1 51113U 22005K   23039.13670344  .00014492  00000-0  92639-3 0  9997,2 51113  53.2170 301.9244 0001446  71.5380 288.5770 15.08853919 60061,6917.838,95.437,540.703,538.703,0.0
51113.0,STARLINK-3372,PAYLOAD,2023-02-08 22:21:29,15.08842278,0.000117,53.218,298.3558,77.5029,282.6094,0.0014368,0.00022654,0.0,0 STARLINK-3372,1 51113U 22005K   23039.93159103  .00022654  00000-0  14368-2 0  9991,2 51113  53.2180 298.3558 0001170  77.5029 282.6094 15.08842278 59078,6917.873,95.437,540.548,538.929,0.0
51113.0,STARLINK-3372,PAYLOAD,2023-02-09 03:07:38,15.08858392,0.0001227,53.2177,297.4631,73.0606,287.0521,0.0019506,0.00030908,0.0,0 STARLINK-3372,1 51113U 22005K   23040.13030942  .00030908  00000-0  19506-2 0  9994,2 51113  53.2177 297.4631 0001227  73.0606 287.0521 15.08858392 60217,6917.824,95.436,540.538,538.84,0.0
51113.0,STARLINK-3372,PAYLOAD,2023-02-09 20:36:53,15.08850479,0.000221,53.2161,294.1902,133.5088,226.6088,0.0012932,0.00020359,0.0,0 STARLINK-3372,1 51113U 22005K   23040.85894995  .00020359  00000-0  12932-2 0  9994,2 51113  53.2161 294.1902 0002210 133.5088 226.6088 15.08850479 60321,6917.848,95.437,541.242,538.185,0.0
51113.0,STARLINK-3372,PAYLOAD,2023-02-10 02:58:25,15.08879803,0.0001013,53.2168,293.0025,92.7131,267.3977,0.0026403,0.00042029,0.0,0 STARLINK-3372,1 51113U 22005K   23041.12390719  .00042029  00000-0  26403-2 0  9996,2 51113  53.2168 293.0025 0001013  92.7131 267.3977 15.08879803 59258,6917.759,95.435,540.324,538.923,0.0
51113.0,STARLINK-3372,PAYLOAD,2023-02-10 23:38:26,15.08868318,0.0002164,53.2161,289.1339,76.5923,283.5311,0.0017406,0.00027544,0.0,0 STARLINK-3372,1 51113U 22005K   23041.98502964  .00027544  00000-0  17406-2 0  9995,2 51113  53.2161 289.1339 0002164  76.5923 283.5311 15.08868318 60491,6917.794,95.436,541.156,538.162,0.0
51113.0,STARLINK-3372,PAYLOAD,2023-02-11 05:59:59,15.08854049,9.73e-05,53.2167,287.949,74.1743,285.9356,0.0011315,0.00017773,0.0,0 STARLINK-3372,1 51113U 22005K   23042.24998849  .00017773  00000-0  11315-2 0  9992,2 51113  53.2167 287.9490 0000973  74.1743 285.9356 15.08854049 60537,6917.837,95.437,540.376,539.029,0.0
51113.0,STARLINK-3372,PAYLOAD,2023-02-11 17:07:41,15.08820774,0.0001287,53.2167,285.8649,88.197,271.9169,0.00030571,4.578e-05,0.0,0 STARLINK-3372,1 51113U 22005K   23042.71367637  .00004578  00000-0  30571-3 0  9994,2 51113  53.2167 285.8649 0001287  88.1970 271.9169 15.08820774 60609,6917.939,95.439,540.694,538.914,0.0
51113.0,STARLINK-3372,PAYLOAD,2023-02-13 02:30:47,15.08838557,0.0001369,53.2164,279.6198,82.3943,277.7205,0.00027523,4.095e-05,0.0,0 STARLINK-3372,1 51113U 22005K   23044.10472220  .00004095  00000-0  27523-3 0  9991,2 51113  53.2164 279.6198 0001369  82.3943 277.7205 15.08838557 60819,6917.885,95.438,540.697,538.803,0.0
51113.0,STARLINK-3372,PAYLOAD,2023-02-13 08:52:20,15.0883741,0.0001338,53.2163,278.4301,84.6444,275.4701,0.00018481,2.654e-05,0.0,0 STARLINK-3372,1 51113U 22005K   23044.36968304  .00002654  00000-0  18481-3 0  9994,2 51113  53.2163 278.4301 0001338  84.6444 275.4701 15.08837410 59741,6917.888,95.438,540.679,538.828,0.0
51113.0,STARLINK-3372,PAYLOAD,2023-02-14 08:43:07,15.08843507,0.000152,53.2165,273.9693,88.5621,271.5545,0.00018906,2.722e-05,0.0,0 STARLINK-3372,1 51113U 22005K   23045.36328161  .00002722  00000-0  18906-3 0  9994,2 51113  53.2165 273.9693 0001520  88.5621 271.5545 15.08843507 61009,6917.87,95.437,540.786,538.683,0.0
51113.0,STARLINK-3372,PAYLOAD,2023-02-15 02:12:21,15.08848429,9.91e-05,53.2172,270.6994,85.6049,274.5056,0.00016704,2.372e-05,0.0,0 STARLINK-3372,1 51113U 22005K   23046.09191595  .00002372  00000-0  16704-3 0  9999,2 51113  53.2172 270.6994 0000991  85.6049 274.5056 15.08848429 60005,6917.855,95.437,540.405,539.034,0.0
51113.0,STARLINK-3372,PAYLOAD,2023-02-15 18:06:13,15.08841601,0.0001852,53.2123,267.7261,89.5206,270.5998,3.423e-05,2.57e-06,0.0,0 STARLINK-3372,1 51113U 22005K   23046.75432301  .00000257  00000-0  34230-4 0  9990,2 51113  53.2123 267.7261 0001852  89.5206 270.5998 15.08841601 61210,6917.875,95.437,541.022,538.459,0.0
51113.0,STARLINK-3372,PAYLOAD,2023-02-15 21:16:59,15.08845204,0.0001602,53.216,267.1319,87.3029,272.8147,0.00019499,2.817e-05,0.0,0 STARLINK-3372,1 51113U 22005K   23046.88680209  .00002817  00000-0  19499-3 0  9999,2 51113  53.2160 267.1319 0001602  87.3029 272.8147 15.08845204 60124,6917.864,95.437,540.838,538.621,0.0
51113.0,STARLINK-3372,PAYLOAD,2023-02-16 14:46:13,15.08843383,0.0001024,53.2165,263.8595,100.9647,259.146,0.00011614,1.561e-05,0.0,0 STARLINK-3372,1 51113U 22005K   23047.61543961  .00001561  00000-0  11614-3 0  9990,2 51113  53.2165 263.8595 0001024 100.9647 259.1460 15.08843383 60238,6917.87,95.437,540.443,539.027,0.0
51113.0,STARLINK-3372,PAYLOAD,2023-02-16 21:07:46,15.08844005,0.0001308,53.2124,262.6697,88.4736,271.6406,8.2396e-05,1.024e-05,0.0,0 STARLINK-3372,1 51113U 22005K   23047.88039979  .00001024  00000-0  82396-4 0  9998,2 51113  53.2124 262.6697 0001308  88.4736 271.6406 15.08844005 60272,6917.868,95.437,540.638,538.828,0.0
51113.0,STARLINK-3372,PAYLOAD,2023-02-16 22:43:09,15.08841479,0.0001163,53.216,262.3747,88.2275,271.8851,0.00021798,3.183e-05,0.0,0 STARLINK-3372,1 51113U 22005K   23047.94664046  .00003183  00000-0  21798-3 0  9990,2 51113  53.2160 262.3747 0001163  88.2275 271.8851 15.08841479 61392,6917.876,95.437,540.545,538.936,0.0
51113.0,STARLINK-3372,PAYLOAD,2023-02-17 06:40:05,15.08832044,0.0001498,53.2146,260.8863,88.8611,271.2552,2.0362e-06,-2.56e-06,0.0,0 STARLINK-3372,1 51113U 22005K   23048.27784269 -.00000256  00000-0  20362-5 0  9994,2 51113  53.2146 260.8863 0001498  88.8611 271.2552 15.08832044 61445,6917.905,95.438,540.806,538.733,0.0
51113.0,STARLINK-3372,PAYLOAD,2023-02-17 20:58:34,15.0883163,0.0001095,53.2151,258.2099,87.2459,272.8658,-9.6412e-05,-1.821e-05,0.0,0 STARLINK-3372,1 51113U 22005K   23048.87400746 -.00001821  00000-0 -96412-4 0  9993,2 51113  53.2151 258.2099 0001095  87.2459 272.8658 15.08831630 60420,6917.906,95.438,540.528,539.013,0.0
51113.0,STARLINK-3372,PAYLOAD,2023-02-18 14:27:48,15.08838634,0.0001068,53.2164,254.9398,92.1561,267.9554,6.2089e-05,7e-06,0.0,0 STARLINK-3372,1 51113U 22005K   23049.60264643  .00000700  00000-0  62089-4 0  9995,2 51113  53.2164 254.9398 0001068  92.1561 267.9554 15.08838634 60531,6917.885,95.438,540.488,539.011,0.0
51113.0,STARLINK-3372,PAYLOAD,2023-02-19 06:21:39,15.08841023,0.0001147,53.2156,251.9656,92.7622,267.3501,0.00011675,1.571e-05,0.0,0 STARLINK-3372,1 51113U 22005K   23050.26504554  .00001571  00000-0  11675-3 0  9998,2 51113  53.2156 251.9656 0001147  92.7622 267.3501 15.08841023 60631,6917.877,95.437,540.536,538.949,0.0
51113.0,STARLINK-3372,PAYLOAD,2023-02-19 20:40:07,15.08848882,0.0001058,53.216,249.2893,95.9525,264.1588,0.00021573,3.148e-05,0.0,0 STARLINK-3372,1 51113U 22005K   23050.86120147  .00003148  00000-0  21573-3 0  9996,2 51113  53.2160 249.2893 0001058  95.9525 264.1588 15.08848882 61830,6917.853,95.437,540.45,538.986,0.0
51113.0,STARLINK-3372,PAYLOAD,2023-02-20 06:12:26,15.08840844,8.72e-05,53.2155,247.5051,96.3158,263.7934,1.8723e-05,1e-07,0.0,0 STARLINK-3372,1 51113U 22005K   23051.25864273  .00000010  00000-0  18723-4 0  9994,2 51113  53.2155 247.5051 0000872  96.3158 263.7934 15.08840844 61897,6917.878,95.438,540.346,539.14,0.0
51113.0,STARLINK-3372,PAYLOAD,2023-02-20 23:41:40,15.088504,0.000109,53.2159,244.2339,87.542,272.5697,0.00027552,4.101e-05,0.0,0 STARLINK-3372,1 51113U 22005K   23051.98727890  .00004101  00000-0  27552-3 0  9991,2 51113  53.2159 244.2339 0001090  87.5420 272.5697 15.08850400 62008,6917.849,95.437,540.468,538.96,0.0
